[{"OBJECT_NAME":"ONEWEB-0318","OBJECT_ID":"2021-075AF","EPOCH":"2026-03-09T19:59:52.260000","MEAN_MOTION":13.18685721,"ECCENTRICITY":0.00016348,"INCLINATION":87.9252,"RA_OF_ASC_NODE":355.1882,"ARG_OF_PERICENTER":70.4888,"MEAN_ANOMALY":289.6421,"EPHEMERIS_TYPE":0,"CLASSIFICATION_TYPE":"U","NORAD_CAT_ID":49104,"ELEMENT_SET_NO":999,"REV_AT_EPOCH":22407,"BSTAR":0.00018467866,"MEAN_MOTION_DOT":8.6e-7,"MEAN_MOTION_DDOT":0},{"OBJECT_NAME":"SL-14 DEB","OBJECT_ID":"1991-056BG","EPOCH":"2026-03-09T19:52:13.204704","MEAN_MOTION":13.19675144,"ECCENTRICITY":0.00085759,"INCLINATION":82.5703,"RA_OF_ASC_NODE":207.5061,"ARG_OF_PERICENTER":310.4458,"MEAN_ANOMALY":49.5918,"EPHEMERIS_TYPE":0,"CLASSIFICATION_TYPE":"U","NORAD_CAT_ID":45318,"ELEMENT_SET_NO":999,"REV_AT_EPOCH":29046,"BSTAR":0.00066831879,"MEAN_MOTION_DOT":2.8e-6,"MEAN_MOTION_DDOT":0}]
